{
  "type": "FeatureCollection",
  "features": [
    {
      "type": "Feature",
      "properties": {
        "norad_id": 40545,
        "name": "GSAT0204 (GALILEO 8)",
        "group": "gnss",
        "lat": -46.94055392646138,
        "lon": -57.64813256224601,
        "alt_km": 23212.458194043935,
        "timestamp": "2025-12-11T15:53:39.784867+00:00",
        "meta_object_name": "GSAT0204 (GALILEO 8)",
        "meta_object_id": "2015-017B",
        "meta_epoch": "2025-12-11T04:11:34.346112",
        "meta_mean_motion": 1.70475574,
        "meta_eccentricity": 0.0006249,
        "meta_inclination": 56.853,
        "meta_ra_of_asc_node": 346.7403,
        "meta_arg_of_pericenter": 262.765,
        "meta_mean_anomaly": 97.1808,
        "meta_ephemeris_type": 0,
        "meta_classification_type": "U",
        "meta_norad_cat_id": 40545,
        "meta_element_set_no": 999,
        "meta_rev_at_epoch": 2904,
        "meta_bstar": 0,
        "meta_mean_motion_dot": -8.8e-07,
        "meta_mean_motion_ddot": 0,
        "tle_line1": "1 40545U 15017B   25345.17470308 -.00000088  00000+0  00000+0 0  9996",
        "tle_line2": "2 40545  56.8530 346.7403 0006249 262.7650  97.1808  1.70475574 29041"
      },
      "geometry": {
        "type": "Point",
        "coordinates": [
          -57.64813256224601,
          -46.94055392646138
        ]
      }
    },
    {
      "type": "Feature",
      "properties": {
        "norad_id": 40549,
        "name": "BEIDOU-3S IGSO-1S (C31)",
        "group": "gnss",
        "lat": 43.660846280758584,
        "lon": 63.2949167882892,
        "alt_km": 35744.98287462133,
        "timestamp": "2025-12-11T15:53:39.784878+00:00",
        "meta_object_name": "BEIDOU-3S IGSO-1S (C31)",
        "meta_object_id": "2015-019A",
        "meta_epoch": "2025-12-07T20:38:38.671584",
        "meta_mean_motion": 1.00293516,
        "meta_eccentricity": 0.00368211,
        "meta_inclination": 49.562,
        "meta_ra_of_asc_node": 297.7693,
        "meta_arg_of_pericenter": 193.8977,
        "meta_mean_anomaly": 348.5751,
        "meta_ephemeris_type": 0,
        "meta_classification_type": "U",
        "meta_norad_cat_id": 40549,
        "meta_element_set_no": 999,
        "meta_rev_at_epoch": 3915,
        "meta_bstar": 0,
        "meta_mean_motion_dot": -1.86e-06,
        "meta_mean_motion_ddot": 0,
        "tle_line1": "1 40549U 15019A   25341.86016981 -.00000186  00000+0  00000+0 0  9996",
        "tle_line2": "2 40549  49.5620 297.7693 0036821 193.8977 348.5751  1.00293516 39155"
      },
      "geometry": {
        "type": "Point",
        "coordinates": [
          63.2949167882892,
          43.660846280758584
        ]
      }
    },
    {
      "type": "Feature",
      "properties": {
        "norad_id": 40730,
        "name": "GPS BIIF-10 (PRN 08)",
        "group": "gnss",
        "lat": -48.00696751768871,
        "lon": -138.58527752266244,
        "alt_km": 20200.565255795504,
        "timestamp": "2025-12-11T15:53:39.784891+00:00",
        "meta_object_name": "GPS BIIF-10 (PRN 08)",
        "meta_object_id": "2015-033A",
        "meta_epoch": "2025-12-10T18:08:59.885952",
        "meta_mean_motion": 2.00565667,
        "meta_eccentricity": 0.01108361,
        "meta_inclination": 54.1324,
        "meta_ra_of_asc_node": 274.8545,
        "meta_arg_of_pericenter": 26.7633,
        "meta_mean_anomaly": 333.8214,
        "meta_ephemeris_type": 0,
        "meta_classification_type": "U",
        "meta_norad_cat_id": 40730,
        "meta_element_set_no": 999,
        "meta_rev_at_epoch": 7621,
        "meta_bstar": 0,
        "meta_mean_motion_dot": -6.3e-07,
        "meta_mean_motion_ddot": 0,
        "tle_line1": "1 40730U 15033A   25344.75624868 -.00000063  00000+0  00000+0 0  9998",
        "tle_line2": "2 40730  54.1324 274.8545 0110836  26.7633 333.8214  2.00565667 76213"
      },
      "geometry": {
        "type": "Point",
        "coordinates": [
          -138.58527752266244,
          -48.00696751768871
        ]
      }
    },
    {
      "type": "Feature",
      "properties": {
        "norad_id": 40748,
        "name": "BEIDOU-3S M2S (C58)",
        "group": "gnss",
        "lat": -1.6521215150004578,
        "lon": 129.63908884136237,
        "alt_km": 21526.000148352545,
        "timestamp": "2025-12-11T15:53:39.784903+00:00",
        "meta_object_name": "BEIDOU-3S M2S (C58)",
        "meta_object_id": "2015-037A",
        "meta_epoch": "2025-12-09T05:49:19.735392",
        "meta_mean_motion": 1.86228936,
        "meta_eccentricity": 0.00124384,
        "meta_inclination": 55.042,
        "meta_ra_of_asc_node": 308.5839,
        "meta_arg_of_pericenter": 267.3919,
        "meta_mean_anomaly": 92.4547,
        "meta_ephemeris_type": 0,
        "meta_classification_type": "U",
        "meta_norad_cat_id": 40748,
        "meta_element_set_no": 999,
        "meta_rev_at_epoch": 7058,
        "meta_bstar": 0,
        "meta_mean_motion_dot": -7.5e-07,
        "meta_mean_motion_ddot": 0,
        "tle_line1": "1 40748U 15037A   25343.24258953 -.00000075  00000+0  00000+0 0  9995",
        "tle_line2": "2 40748  55.0420 308.5839 0012438 267.3919  92.4547  1.86228936 70588"
      },
      "geometry": {
        "type": "Point",
        "coordinates": [
          129.63908884136237,
          -1.6521215150004578
        ]
      }
    },
    {
      "type": "Feature",
      "properties": {
        "norad_id": 40749,
        "name": "BEIDOU-3S M1S (C57)",
        "group": "gnss",
        "lat": 22.509482078639262,
        "lon": -34.68249304522999,
        "alt_km": 21514.820457938702,
        "timestamp": "2025-12-11T15:53:39.784914+00:00",
        "meta_object_name": "BEIDOU-3S M1S (C57)",
        "meta_object_id": "2015-037B",
        "meta_epoch": "2025-12-08T22:28:18.289056",
        "meta_mean_motion": 1.86253835,
        "meta_eccentricity": 0.0003421,
        "meta_inclination": 55.0388,
        "meta_ra_of_asc_node": 308.5837,
        "meta_arg_of_pericenter": 357.7489,
        "meta_mean_anomaly": 2.238,
        "meta_ephemeris_type": 0,
        "meta_classification_type": "U",
        "meta_norad_cat_id": 40749,
        "meta_element_set_no": 999,
        "meta_rev_at_epoch": 7058,
        "meta_bstar": 0,
        "meta_mean_motion_dot": -7.4e-07,
        "meta_mean_motion_ddot": 0,
        "tle_line1": "1 40749U 15037B   25342.93632279 -.00000074  00000+0  00000+0 0  9997",
        "tle_line2": "2 40749  55.0388 308.5837 0003421 357.7489   2.2380  1.86253835 70588"
      },
      "geometry": {
        "type": "Point",
        "coordinates": [
          -34.68249304522999,
          22.509482078639262
        ]
      }
    },
    {
      "type": "Feature",
      "properties": {
        "norad_id": 40889,
        "name": "GSAT0205 (GALILEO 9)",
        "group": "gnss",
        "lat": 54.102984088506645,
        "lon": -57.959029962345184,
        "alt_km": 23203.127461178694,
        "timestamp": "2025-12-11T15:53:39.784925+00:00",
        "meta_object_name": "GSAT0205 (GALILEO 9)",
        "meta_object_id": "2015-045A",
        "meta_epoch": "2025-12-10T08:33:32.148576",
        "meta_mean_motion": 1.7047308,
        "meta_eccentricity": 0.0005904,
        "meta_inclination": 55.0041,
        "meta_ra_of_asc_node": 226.8241,
        "meta_arg_of_pericenter": 38.7722,
        "meta_mean_anomaly": 321.3515,
        "meta_ephemeris_type": 0,
        "meta_classification_type": "U",
        "meta_norad_cat_id": 40889,
        "meta_element_set_no": 999,
        "meta_rev_at_epoch": 6379,
        "meta_bstar": 0,
        "meta_mean_motion_dot": 9e-08,
        "meta_mean_motion_ddot": 0,
        "tle_line1": "1 40889U 15045A   25344.35662209  .00000009  00000+0  00000+0 0  9992",
        "tle_line2": "2 40889  55.0041 226.8241 0005904  38.7722 321.3515  1.70473080 63793"
      },
      "geometry": {
        "type": "Point",
        "coordinates": [
          -57.959029962345184,
          54.102984088506645
        ]
      }
    },
    {
      "type": "Feature",
      "properties": {
        "norad_id": 40890,
        "name": "GSAT0206 (GALILEO 10)",
        "group": "gnss",
        "lat": -41.589921163851535,
        "lon": -171.61509635103363,
        "alt_km": 23227.325188219398,
        "timestamp": "2025-12-11T15:53:39.784935+00:00",
        "meta_object_name": "GSAT0206 (GALILEO 10)",
        "meta_object_id": "2015-045B",
        "meta_epoch": "2025-12-09T23:46:35.187456",
        "meta_mean_motion": 1.70473081,
        "meta_eccentricity": 0.0003825,
        "meta_inclination": 55.0033,
        "meta_ra_of_asc_node": 226.8293,
        "meta_arg_of_pericenter": 36.5835,
        "meta_mean_anomaly": 323.5254,
        "meta_ephemeris_type": 0,
        "meta_classification_type": "U",
        "meta_norad_cat_id": 40890,
        "meta_element_set_no": 999,
        "meta_rev_at_epoch": 6381,
        "meta_bstar": 0,
        "meta_mean_motion_dot": 9e-08,
        "meta_mean_motion_ddot": 0,
        "tle_line1": "1 40890U 15045B   25343.99068504  .00000009  00000+0  00000+0 0  9991",
        "tle_line2": "2 40890  55.0033 226.8293 0003825  36.5835 323.5254  1.70473081 63812"
      },
      "geometry": {
        "type": "Point",
        "coordinates": [
          -171.61509635103363,
          -41.589921163851535
        ]
      }
    }
  ]
}